{"type": "FeatureCollection", "features": [ {"type": "Feature", "properties": {"norad_id": 64902, "name": "CO3D 2", "group": "resource", "lat": -66.1063590124518, "lon": 93.3752178933107, "alt_km": 512.8428258655513, "timestamp": "2025-12-26T03:50:11.745827+00:00", "meta": {"OBJECT_NAME": "CO3D 2", "OBJECT_ID": "2025-156D", "EPOCH": "2025-12-25T20:13:59.394720", "MEAN_MOTION": 15.20195461, "ECCENTRICITY": 7.95e-05, "INCLINATION": 97.434, "RA_OF_ASC_NODE": 75.921, "ARG_OF_PERICENTER": 61.6528, "MEAN_ANOMALY": 298.4787, "EPHEMERIS_TYPE": 0, "CLASSIFICATION_TYPE": "U", "NORAD_CAT_ID": 64902, "ELEMENT_SET_NO": 999, "REV_AT_EPOCH": 2319, "BSTAR": 0.00014515, "MEAN_MOTION_DOT": 3.075e-05, "MEAN_MOTION_DDOT": 0}, "tle": {"line1": "1 64902U 25156D   25359.84304855  .00003075  00000+0  14515-3 0  9994", "line2": "2 64902  97.4340  75.9210 0000795  61.6528 298.4787 15.20195461 23197"}}, "geometry": {"type": "Point", "coordinates": [93.3752178933107, -66.1063590124518]}}, {"type": "Feature", "properties": {"norad_id": 64903, "name": "CO3D 1", "group": "resource", "lat": -66.88590819649623, "lon": 94.04568315665745, "alt_km": 512.9350746485788, "timestamp": "2025-12-26T03:50:11.745837+00:00", "meta": {"OBJECT_NAME": "CO3D 1", "OBJECT_ID": "2025-156E", "EPOCH": "2025-12-25T20:14:12.606144", "MEAN_MOTION": 15.20201947, "ECCENTRICITY": 8.61e-05, "INCLINATION": 97.4338, "RA_OF_ASC_NODE": 75.921, "ARG_OF_PERICENTER": 71.5007, "MEAN_ANOMALY": 288.6321, "EPHEMERIS_TYPE": 0, "CLASSIFICATION_TYPE": "U", "NORAD_CAT_ID": 64903, "ELEMENT_SET_NO": 999, "REV_AT_EPOCH": 2319, "BSTAR": 0.00027917, "MEAN_MOTION_DOT": 5.981e-05, "MEAN_MOTION_DDOT": 0}, "tle": {"line1": "1 64903U 25156E   25359.84320146  .00005981  00000+0  27917-3 0  9994", "line2": "2 64903  97.4338  75.9210 0000861  71.5007 288.6321 15.20201947 23193"}}, "geometry": {"type": "Point", "coordinates": [94.04568315665745, -66.88590819649623]}}, {"type": "Feature", "properties": {"norad_id": 66514, "name": "SENTINEL-6B", "group": "resource", "lat": 49.47116005448982, "lon": 165.89788311477477, "alt_km": 1337.3991494647698, "timestamp": "2025-12-26T03:50:11.745847+00:00", "meta": {"OBJECT_NAME": "SENTINEL-6B", "OBJECT_ID": "2025-264A", "EPOCH": "2025-12-25T18:10:28.373376", "MEAN_MOTION": 12.80929561, "ECCENTRICITY": 0.0007902, "INCLINATION": 66.0399, "RA_OF_ASC_NODE": 135.3964, "ARG_OF_PERICENTER": 269.9783, "MEAN_ANOMALY": 90.0326, "EPHEMERIS_TYPE": 0, "CLASSIFICATION_TYPE": "U", "NORAD_CAT_ID": 66514, "ELEMENT_SET_NO": 999, "REV_AT_EPOCH": 495, "BSTAR": 6.3135e-05, "MEAN_MOTION_DOT": -4.6e-07, "MEAN_MOTION_DDOT": 0}, "tle": {"line1": "1 66514U 25264A   25359.75727284 -.00000046  00000+0  63135-4 0  9999", "line2": "2 66514  66.0399 135.3964 0007902 269.9783  90.0326 12.80929561  4951"}}, "geometry": {"type": "Point", "coordinates": [165.89788311477477, 49.47116005448982]}}]}